1 99999X 20042F   20001.04166667  .00000000  00000-0  31565-3 0  9995
2 99999  97.4898 240.1137 0019663 250.1269  49.0265 15.11409707    12
